[
    {
        "CCSDS_OMM_VERS": "3.0",
        "COMMENT": "GENERATED VIA SPACE-TRACK.ORG API",
        "CREATION_DATE": "2025-05-03T06:36:24",
        "ORIGINATOR": "18 SPCS",
        "OBJECT_NAME": "COSMOS 2461 (GLONASS)",
        "OBJECT_ID": "2010-007B",
        "CENTER_NAME": "EARTH",
        "REF_FRAME": "TEME",
        "TIME_SYSTEM": "UTC",
        "MEAN_ELEMENT_THEORY": "SGP4",
        "EPOCH": "2025-05-03T04:48:38.512800",
        "MEAN_MOTION": "2.13106750",
        "ECCENTRICITY": "0.00206850",
        "INCLINATION": "65.6623",
        "RA_OF_ASC_NODE": "328.3743",
        "ARG_OF_PERICENTER": "2.6149",
        "MEAN_ANOMALY": "180.0263",
        "EPHEMERIS_TYPE": "0",
        "CLASSIFICATION_TYPE": "U",
        "NORAD_CAT_ID": "36401",
        "ELEMENT_SET_NO": "999",
        "REV_AT_EPOCH": "11807",
        "BSTAR": "0.00000000000000",
        "MEAN_MOTION_DOT": "-0.00000049",
        "MEAN_MOTION_DDOT": "0.0000000000000",
        "SEMIMAJOR_AXIS": "25507.645",
        "PERIOD": "675.718",
        "APOAPSIS": "19182.273",
        "PERIAPSIS": "19076.748",
        "OBJECT_TYPE": "PAYLOAD",
        "RCS_SIZE": "LARGE",
        "COUNTRY_CODE": "CIS",
        "LAUNCH_DATE": "2010-03-01",
        "SITE": "TTMTR",
        "DECAY_DATE": null,
        "FILE": "4717388",
        "GP_ID": "286730610",
        "TLE_LINE0": "0 COSMOS 2461 (GLONASS)",
        "TLE_LINE1": "1 36401U 10007B   25123.20044575 -.00000049  00000-0  00000+0 0  9995",
        "TLE_LINE2": "2 36401  65.6623 328.3743 0020685   2.6149 180.0263  2.13106750118079"
    }
]